[{"OBJECT_ID":"1968-012G","OBJECT_NAME":"TRANSIT 18 DEB","NORAD_CAT_ID":"42668","OBJECT_TYPE":"DEBRIS","PERIOD":"104.078","INCLINATION":"89.9880","ECCENTRICITY":"0.01171020","MEAN_MOTION":"13.83574608","TLE_LINE1":"1 42668U 68012G   21271.47066812  .00005339  00000-0  45819-2 0  9999","TLE_LINE2":"2 42668  89.9880 268.6404 0117102  17.9903 342.5357 13.83574608393459"},{"OBJECT_ID":"1991-050T","OBJECT_NAME":"ERS 1 DEB","NORAD_CAT_ID":"42669","OBJECT_TYPE":"DEBRIS","PERIOD":"99.917","INCLINATION":"98.5389","ECCENTRICITY":"0.00313690","MEAN_MOTION":"14.41197621","TLE_LINE1":"1 42669U 91050T   21271.43509414  .00002054  00000-0  64653-3 0  9993","TLE_LINE2":"2 42669  98.5389 226.2477 0031369 316.7959  43.0769 14.41197621239204"},{"OBJECT_ID":"2015-069C","OBJECT_NAME":"CZ-4C DEB","NORAD_CAT_ID":"42670","OBJECT_TYPE":"DEBRIS","PERIOD":"95.538","INCLINATION":"97.7258","ECCENTRICITY":"0.00934260","MEAN_MOTION":"15.07248925","TLE_LINE1":"1 42670U 15069C   21270.84953550  .00001123  00000-0  71874-4 0  9999","TLE_LINE2":"2 42670  97.7258 311.4641 0093426  10.8869 349.4350 15.07248925271859"},{"OBJECT_ID":"2015-069D","OBJECT_NAME":"CZ-4C DEB","NORAD_CAT_ID":"42671","OBJECT_TYPE":"DEBRIS","PERIOD":"98.930","INCLINATION":"97.9699","ECCENTRICITY":"0.01615650","MEAN_MOTION":"14.55576837","TLE_LINE1":"1 42671U 93036BWR 21271.18565820  .00001027  00000-0  20697-3 0  9996","TLE_LINE2":"2 42671  97.9699 176.8756 0161565  70.7664 291.0936 14.55576837304317"},{"OBJECT_ID":"2015-069E","OBJECT_NAME":"CZ-4C DEB","NORAD_CAT_ID":"42672","OBJECT_TYPE":"DEBRIS","PERIOD":"98.672","INCLINATION":"98.1278","ECCENTRICITY":"0.01603660","MEAN_MOTION":"14.59386146","TLE_LINE1":"1 42672U 15069E   21271.10187247  .00001490  00000-0  27231-3 0  9997","TLE_LINE2":"2 42672  98.1278 210.4247 0160366  56.1762 305.4587 14.59386146305082"},{"OBJECT_ID":"2015-069F","OBJECT_NAME":"YAOGAN 29 DEB","NORAD_CAT_ID":"42673","OBJECT_TYPE":"DEBRIS","PERIOD":"96.958","INCLINATION":"97.9963","ECCENTRICITY":"0.00023960","MEAN_MOTION":"14.85178319","TLE_LINE1":"1 42673U 15069F   21271.83378641  .00000218  00000-0  31936-4 0  9993","TLE_LINE2":"2 42673  97.9963 277.0145 0002396 256.1564 103.9384 14.85178319315893"},{"OBJECT_ID":"2016-012S","OBJECT_NAME":"ASTRO H DEB","NORAD_CAT_ID":"42674","OBJECT_TYPE":"DEBRIS","PERIOD":"94.398","INCLINATION":"31.0011","ECCENTRICITY":"0.00068270","MEAN_MOTION":"15.25460132","TLE_LINE1":"1 42674U 16012S   21271.44789785  .00036046  00000-0  13753-2 0  9998","TLE_LINE2":"2 42674  31.0011  45.9884 0006827  36.1684 323.9419 15.25460132294173"},{"OBJECT_ID":"2016-012T","OBJECT_NAME":"ASTRO H DEB","NORAD_CAT_ID":"42675","OBJECT_TYPE":"DEBRIS","PERIOD":"94.595","INCLINATION":"31.0123","ECCENTRICITY":"0.00054650","MEAN_MOTION":"15.22272764","TLE_LINE1":"1 42675U 16012T   21262.76211643  .00011655  00000-0  48783-3 0  9998","TLE_LINE2":"2 42675  31.0123 134.5578 0005465 267.9589  92.0427 15.22272764256437"},{"OBJECT_ID":"2016-029B","OBJECT_NAME":"YAOGAN 30 DEB","NORAD_CAT_ID":"42676","OBJECT_TYPE":"DEBRIS","PERIOD":"101.214","INCLINATION":"98.1710","ECCENTRICITY":"0.02569930","MEAN_MOTION":"14.22731575","TLE_LINE1":"1 42676U 16029B   21270.57676992  .00000286  00000-0  10509-3 0  9990","TLE_LINE2":"2 42676  98.1710 194.2362 0256993 164.8094 196.0990 14.22731575266326"},{"OBJECT_ID":"2016-029C","OBJECT_NAME":"YAOGAN 30 DEB","NORAD_CAT_ID":"42677","OBJECT_TYPE":"DEBRIS","PERIOD":"101.285","INCLINATION":"97.9910","ECCENTRICITY":"0.02580640","MEAN_MOTION":"14.21729375","TLE_LINE1":"1 42677U 16029C   21271.95435152  .00000392  00000-0  14043-3 0  9990","TLE_LINE2":"2 42677  97.9910 162.3558 0258064 138.5450 223.5627 14.21729375266455"},{"OBJECT_ID":"2016-049C","OBJECT_NAME":"GAOFEN 3 DEB","NORAD_CAT_ID":"42678","OBJECT_TYPE":"DEBRIS","PERIOD":"99.626","INCLINATION":"98.3754","ECCENTRICITY":"0.00087290","MEAN_MOTION":"14.45406333","TLE_LINE1":"1 42678U 16049C   21272.32898696  .00000034  00000-0  22116-4 0  9995","TLE_LINE2":"2 42678  98.3754 285.6487 0008729 173.8475 186.2825 14.45406333265082"},{"OBJECT_ID":"2016-049D","OBJECT_NAME":"GAOFEN 3 DEB","NORAD_CAT_ID":"42679","OBJECT_TYPE":"DEBRIS","PERIOD":"99.633","INCLINATION":"98.3766","ECCENTRICITY":"0.00067820","MEAN_MOTION":"14.45308088","TLE_LINE1":"1 42679U 16049D   21272.31748093  .00000032  00000-0  21366-4 0  9994","TLE_LINE2":"2 42679  98.3766 285.4632 0006782 174.1912 185.9360 14.45308088270964"},{"OBJECT_ID":"2016-049E","OBJECT_NAME":"GAOFEN 3 DEB","NORAD_CAT_ID":"42680","OBJECT_TYPE":"DEBRIS","PERIOD":"99.836","INCLINATION":"98.4110","ECCENTRICITY":"0.00173670","MEAN_MOTION":"14.42359262","TLE_LINE1":"1 42680U 16049E   21272.24912427  .00000462  00000-0  15289-3 0  9995","TLE_LINE2":"2 42680  98.4110 270.9436 0017367 296.2729  63.6676 14.42359262267420"},{"OBJECT_ID":"2017-050B","OBJECT_NAME":"MINOTAUR DEB","NORAD_CAT_ID":"42922","OBJECT_TYPE":"DEBRIS","PERIOD":"93.520","INCLINATION":"24.5016","ECCENTRICITY":"0.01071970","MEAN_MOTION":"15.39777098","TLE_LINE1":"1 42922U 17050B   21272.21032106  .00013352  00000-0  25319-3 0  9998","TLE_LINE2":"2 42922  24.5016 105.8997 0107197 252.6117 106.2656 15.39777098229338"},{"OBJECT_ID":"2017-068G","OBJECT_NAME":"MINOTAUR-C DEB","NORAD_CAT_ID":"42993","OBJECT_TYPE":"DEBRIS","PERIOD":"94.711","INCLINATION":"97.4313","ECCENTRICITY":"0.00163000","MEAN_MOTION":"15.20416261","TLE_LINE1":"1 42993U 17068G   21272.26953003  .00002184  00000-0  10308-3 0  9991","TLE_LINE2":"2 42993  97.4313  17.3614 0016300 276.3426  83.5953 15.20416261216840"},{"OBJECT_ID":"1974-011C","OBJECT_NAME":"METEOR 1-16 DEB","NORAD_CAT_ID":"42999","OBJECT_TYPE":"DEBRIS","PERIOD":"101.578","INCLINATION":"81.2280","ECCENTRICITY":"0.00330040","MEAN_MOTION":"14.17633091","TLE_LINE1":"1 42999U 74011C   21271.28034380  .00001941  00000-0  94409-3 0  9991","TLE_LINE2":"2 42999  81.2280 275.6040 0033004 261.3690  98.3745 14.17633091268880"},{"OBJECT_ID":"2017-077B","OBJECT_NAME":"CZ-2D DEB","NORAD_CAT_ID":"43035","OBJECT_TYPE":"DEBRIS","PERIOD":"93.948","INCLINATION":"97.2185","ECCENTRICITY":"0.00154040","MEAN_MOTION":"15.32765904","TLE_LINE1":"1 43035U 17077B   21272.12714023  .00010694  00000-0  33900-3 0  9999","TLE_LINE2":"2 43035  97.2185 336.8209 0015404 118.6275 241.6519 15.32765904213112"},{"OBJECT_ID":"2017-077C","OBJECT_NAME":"CZ-2D DEB","NORAD_CAT_ID":"43036","OBJECT_TYPE":"DEBRIS","PERIOD":"94.289","INCLINATION":"97.5204","ECCENTRICITY":"0.00094490","MEAN_MOTION":"15.27215850","TLE_LINE1":"1 43036U 17077C   21271.51860251  .00007892  00000-0  29833-3 0  9993","TLE_LINE2":"2 43036  97.5204  11.3629 0009449 259.9108 100.1065 15.27215850212360"},{"OBJECT_ID":"2017-077D","OBJECT_NAME":"CZ-2D DEB","NORAD_CAT_ID":"43037","OBJECT_TYPE":"DEBRIS","PERIOD":"92.281","INCLINATION":"97.5856","ECCENTRICITY":"0.00275030","MEAN_MOTION":"15.60443318","TLE_LINE1":"1 43037U 17077D   21271.39504181  .00047111  00000-0  56226-3 0  9991","TLE_LINE2":"2 43037  97.5856  55.3924 0027503 326.6528  33.2995 15.60443318215077"},{"OBJECT_ID":"2017-077E","OBJECT_NAME":"CZ-2D DEB","NORAD_CAT_ID":"43038","OBJECT_TYPE":"DEBRIS","PERIOD":"93.450","INCLINATION":"97.2008","ECCENTRICITY":"0.00286350","MEAN_MOTION":"15.40938449","TLE_LINE1":"1 43038U 17077E   21271.42291276  .00014421  00000-0  34722-3 0  9999","TLE_LINE2":"2 43038  97.2008 343.4751 0028635 339.4801  20.5293 15.40938449213751"},{"OBJECT_ID":"2017-082D","OBJECT_NAME":"H-2A DEB","NORAD_CAT_ID":"43068","OBJECT_TYPE":"DEBRIS","PERIOD":"97.127","INCLINATION":"97.9701","ECCENTRICITY":"0.02301000","MEAN_MOTION":"14.82599820","TLE_LINE1":"1 43068U 17082D   21271.50960467  .00001309  00000-0  10803-3 0  9997","TLE_LINE2":"2 43068  97.9701   1.7718 0230100 344.5504  14.8763 14.82599820203632"},{"OBJECT_ID":"2017-082E","OBJECT_NAME":"H-2A DEB","NORAD_CAT_ID":"43069","OBJECT_TYPE":"DEBRIS","PERIOD":"100.068","INCLINATION":"98.4127","ECCENTRICITY":"0.00302930","MEAN_MOTION":"14.39023325","TLE_LINE1":"1 43069U 17082E   21271.48101225  .00000790  00000-0  26849-3 0  9994","TLE_LINE2":"2 43069  98.4127 341.7874 0030293 335.7796  24.1966 14.39023325197711"},{"OBJECT_ID":"2017-086C","OBJECT_NAME":"FREGAT DEB (TANK)","NORAD_CAT_ID":"43089","OBJECT_TYPE":"DEBRIS","PERIOD":"127.560","INCLINATION":"50.3949","ECCENTRICITY":"0.20817070","MEAN_MOTION":"11.28878788","TLE_LINE1":"1 43089U 17086C   21270.90949610  .00022254  33561-5  60521-3 0  9991","TLE_LINE2":"2 43089  50.3949  86.0086 2081707 347.3017   8.2184 11.28878788152711"},{"OBJECT_ID":"2017-084B","OBJECT_NAME":"CZ-2D DEB","NORAD_CAT_ID":"43095","OBJECT_TYPE":"DEBRIS","PERIOD":"94.084","INCLINATION":"97.3508","ECCENTRICITY":"0.00106840","MEAN_MOTION":"15.30541349","TLE_LINE1":"1 43095U 17084B   21271.50866294  .00009166  00000-0  31240-3 0  9999","TLE_LINE2":"2 43095  97.3508 353.1945 0010684  99.6749 260.5700 15.30541349209284"},{"OBJECT_ID":"2017-084C","OBJECT_NAME":"CZ-2D DEB","NORAD_CAT_ID":"43096","OBJECT_TYPE":"DEBRIS","PERIOD":"93.929","INCLINATION":"97.3990","ECCENTRICITY":"0.00157380","MEAN_MOTION":"15.33077651","TLE_LINE1":"1 43096U 17084C   21271.48244470  .00010889  00000-0  34183-3 0  9996","TLE_LINE2":"2 43096  97.3990   2.7953 0015738 102.5703 257.7300 15.33077651209530"},{"OBJECT_ID":"2017-084D","OBJECT_NAME":"CZ-2D DEB","NORAD_CAT_ID":"43097","OBJECT_TYPE":"DEBRIS","PERIOD":"92.473","INCLINATION":"97.2755","ECCENTRICITY":"0.00294270","MEAN_MOTION":"15.57206044","TLE_LINE1":"1 43097U 17084D   21272.24660121  .00041292  00000-0  55620-3 0  9998","TLE_LINE2":"2 43097  97.2755   9.4212 0029427  16.8877 343.3351 15.57206044211582"},{"OBJECT_ID":"2018-002D","OBJECT_NAME":"CZ-2D DEB","NORAD_CAT_ID":"43102","OBJECT_TYPE":"DEBRIS","PERIOD":"95.288","INCLINATION":"97.3067","ECCENTRICITY":"0.00168150","MEAN_MOTION":"15.11201486","TLE_LINE1":"1 43102U 18002D   21271.07386445  .00003301  00000-0  19957-3 0  9992","TLE_LINE2":"2 43102  97.3067 315.8829 0016815 139.1847 221.0646 15.11201486204864"}]